MEAN_MOTION;ECCENTRICITY;INCLINATION;RA_OF_ASC_NODE;ARG_OF_PERICENTER;MEAN_ANOMALY;BSTAR;MEAN_MOTION_DOT;MEAN_MOTION_DDOT;TYPE
14.34219346;0.0002224;86.3944;116.0226;81.2933;278.8514;1.5867E-5;6.4E-7;0;Iridium
14.34219452;0.0002205;86.3943;115.7016;81.4873;278.6572;1.9646E-5;7.5E-7;0;Iridium
14.34219459;0.0002203;86.3943;115.6724;81.4667;278.6778;1.9433E-5;7.4E-7;0;Iridium
14.3421963;0.0002179;86.3941;115.2638;81.5898;278.5545;2.4203E-5;8.8E-7;0;Iridium
14.34219636;0.0002178;86.3941;115.2346;81.5717;278.5726;2.4105E-5;8.7E-7;0;Iridium
14.34219755;0.0002158;86.394;114.8845;81.5434;278.6006;2.6652E-5;9.4E-7;0;Iridium
14.3421978;0.0002155;86.394;114.8553;81.4879;278.6561;2.7284E-5;9.6E-7;0;Iridium
14.34219904;0.0002135;86.3938;114.4467;81.3781;278.7657;2.7606E-5;9.7E-7;0;Iridium
14.34219904;0.0002135;86.3938;114.4467;81.3781;278.7657;2.7606E-5;9.7E-7;0;Iridium
14.3421999;0.0002122;86.3938;114.1549;81.4885;278.6551;2.6473E-5;9.4E-7;0;Iridium
14.34220104;0.0002109;86.3937;113.8923;81.3905;278.753;2.7274E-5;9.6E-7;0;Iridium
14.34220226;0.0002089;86.3937;113.6004;81.5237;278.6195;2.6792E-5;9.5E-7;0;Iridium
14.34220211;0.0002085;86.3936;113.5713;81.4282;278.715;2.5094E-5;9.0E-7;0;Iridium
14.34220353;0.0002066;86.3936;113.1918;81.5773;278.5657;2.4348E-5;8.8E-7;0;Iridium
14.34220383;0.0002063;86.3935;113.0751;81.4607;278.6823;2.3189E-5;8.5E-7;0;Iridium
14.34220626;0.0002035;86.3933;112.6081;81.5656;278.577;2.4893E-5;8.9E-7;0;Iridium
14.34220753;0.0002014;86.3933;112.3454;81.6234;278.519;2.5716E-5;9.2E-7;0;Iridium
14.34220777;0.0002011;86.3933;112.2286;81.65;278.4924;2.4909E-5;9.0E-7;0;Iridium
14.34215161;0.0002011;86.3933;111.9367;81.161;278.9813;2.4661E-5;8.9E-7;0;Iridium
14.34215372;0.0001983;86.3931;111.7616;82.1482;277.9939;2.4572E-5;8.9E-7;0;Iridium
14.34215439;0.0001959;86.3931;111.5282;82.3229;277.8189;4.5034E-5;1.46E-6;0;Iridium
14.34215225;0.0001957;86.393;111.353;82.5155;277.6263;-3.7547E-6;9.0E-8;0;Iridium
14.34215245;0.000195;86.393;111.1195;82.6036;277.5381;-2.9098E-6;1.2E-7;0;Iridium
14.34215249;0.0001948;86.393;111.0903;82.6206;277.5211;-3.0595E-6;1.1E-7;0;Iridium
14.34215263;0.0001943;86.393;110.9443;82.7799;277.3618;-2.3523E-6;1.3E-7;0;Iridium
14.342155;0.0001927;86.3929;110.6816;82.9991;277.1424;1.8517E-5;7.2E-7;0;Iridium
14.34215504;0.0001926;86.3929;110.6524;83.0153;277.1262;1.8296E-5;7.1E-7;0;Iridium
14.34215586;0.000192;86.3929;110.5065;83.1468;276.9946;2.3187E-5;8.5E-7;0;Iridium
14.34215667;0.0001908;86.3928;110.2729;83.4258;276.7155;2.4817E-5;8.9E-7;0;Iridium
14.34215671;0.0001907;86.3928;110.2437;83.4506;276.6907;2.4382E-5;8.8E-7;0;Iridium
14.34215728;0.0001903;86.3928;110.0978;83.6067;276.5345;2.6295E-5;9.3E-7;0;Iridium
14.34215802;0.000189;86.3927;109.835;83.939;276.2021;2.6327E-5;9.4E-7;0;Iridium
14.3421586;0.0001877;86.3926;109.4263;84.311;275.83;2.3526E-5;8.6E-7;0;Iridium
14.34215893;0.0001874;86.3926;109.2804;84.4691;275.6718;2.3711E-5;8.6E-7;0;Iridium
14.34215941;0.0001862;86.3926;109.0177;84.8048;275.336;2.1719E-5;8.1E-7;0;Iridium
14.34215995;0.0001858;86.3925;108.8425;84.9838;275.157;2.2261E-5;8.2E-7;0;Iridium
14.34216082;0.0001848;86.3925;108.5798;85.5385;274.6021;2.2446E-5;8.3E-7;0;Iridium
14.34216128;0.0001846;86.3925;108.4338;85.6985;274.4421;2.2802E-5;8.4E-7;0;Iridium
14.34216215;0.000184;86.3925;108.2003;86.0156;274.125;2.3606E-5;8.6E-7;0;Iridium
14.34216293;0.0001837;86.3924;107.9959;86.2518;273.8888;2.353E-5;8.6E-7;0;Iridium
14.34216366;0.0001829;86.3924;107.7332;86.6283;273.5122;2.2245E-5;8.2E-7;0;Iridium
14.34216418;0.0001828;86.3924;107.5872;86.8428;273.2977;2.2628E-5;8.3E-7;0;Iridium
14.34216467;0.0001821;86.3925;107.3537;87.2489;272.8916;1.9922E-5;7.6E-7;0;Iridium
14.34216475;0.000182;86.3925;107.3245;87.2844;272.856;1.9521E-5;7.4E-7;0;Iridium
14.34216494;0.0001821;86.3924;107.1785;87.5063;272.6342;1.8041E-5;7.0E-7;0;Iridium
14.34216525;0.0001814;86.3925;106.9158;87.9513;272.1891;1.4244E-5;6.0E-7;0;Iridium
14.34216556;0.0001815;86.3925;106.7406;88.226;271.9143;1.3327E-5;5.7E-7;0;Iridium
14.34216562;0.0001816;86.3925;106.6822;88.3578;271.7826;1.2454E-5;5.5E-7;0;Iridium
14.34216618;0.0001811;86.3925;106.3319;88.7662;271.3741;1.1374E-5;5.2E-7;0;Iridium
14.34216653;0.0001807;86.3925;106.0984;89.1449;270.9954;1.0532E-5;4.9E-7;0;Iridium
14.34216653;0.0001807;86.3925;106.0984;89.1449;270.9954;1.0532E-5;4.9E-7;0;Iridium
14.34216658;0.0001806;86.3925;106.0692;89.1649;270.9754;1.034E-5;4.9E-7;0;Iridium
14.34216751;0.0001805;86.3925;105.6897;89.8843;270.2559;1.2308E-5;5.4E-7;0;Iridium
14.34216805;0.0001807;86.3925;105.4853;90.2522;269.8881;1.3393E-5;5.7E-7;0;Iridium
14.34216891;0.0001806;86.3925;105.2809;90.6096;269.5307;1.6507E-5;6.6E-7;0;Iridium
14.34216997;0.0001808;86.3925;105.0766;90.8284;269.3119;1.9803E-5;7.5E-7;0;Iridium
14.34217034;0.0001808;86.3925;104.843;91.1613;268.979;1.9979E-5;7.6E-7;0;Iridium
14.34217073;0.0001809;86.3925;104.6678;91.3702;268.7701;2.0678E-5;7.8E-7;0;Iridium
14.34217121;0.000181;86.3925;104.4051;91.9896;268.1507;2.081E-5;7.8E-7;0;Iridium
14.34217166;0.0001813;86.3925;104.2299;92.2532;267.8871;2.151E-5;8.0E-7;0;Iridium
14.34217222;0.0001817;86.3925;103.9964;92.8445;267.2958;2.1962E-5;8.1E-7;0;Iridium
14.34217256;0.0001823;86.3925;103.8212;93.1582;266.9822;2.1969E-5;8.1E-7;0;Iridium
14.34217306;0.000183;86.3926;103.5878;93.8137;266.3267;2.1802E-5;8.1E-7;0;Iridium
14.34217365;0.0001834;86.3926;103.4126;93.9497;266.1908;2.2573E-5;8.3E-7;0;Iridium
14.34217429;0.0001842;86.3927;103.1499;94.7229;265.4177;2.16E-5;8.0E-7;0;Iridium
14.342175;0.0001844;86.3927;102.9748;94.9489;265.1917;2.2205E-5;8.2E-7;0;Iridium
14.3421757;0.0001847;86.3927;102.7413;95.2766;264.8641;2.1709E-5;8.1E-7;0;Iridium
14.34217631;0.0001856;86.3928;102.5661;95.7253;264.4154;2.166E-5;8.0E-7;0;Iridium
14.34217795;0.0001866;86.3928;102.1575;95.9744;264.1664;2.1889E-5;8.1E-7;0;Iridium
14.34217855;0.0001865;86.3929;101.8947;95.6949;264.446;1.9388E-5;7.4E-7;0;Iridium
14.34217967;0.0001875;86.393;101.486;96.1897;263.9512;1.7315E-5;6.8E-7;0;Iridium
14.34218011;0.0001883;86.393;101.3109;96.4303;263.7107;1.6401E-5;6.6E-7;0;Iridium
14.34218085;0.0001885;86.3931;101.0774;96.4937;263.6474;1.6325E-5;6.5E-7;0;Iridium
14.34218121;0.0001898;86.3931;100.9024;96.8357;263.3055;1.5288E-5;6.3E-7;0;Iridium
14.34218184;0.0001904;86.3932;100.6689;96.9591;263.1822;1.548E-5;6.3E-7;0;Iridium
14.34218239;0.0001913;86.3932;100.4645;97.0781;263.0633;1.5394E-5;6.3E-7;0;Iridium
14.34218304;0.000192;86.3933;100.231;97.212;262.9294;1.6346E-5;6.6E-7;0;Iridium
14.34218364;0.0001928;86.3933;100.0559;97.2953;262.8462;1.7651E-5;6.9E-7;0;Iridium
14.34218419;0.0001934;86.3934;99.8224;97.4844;262.6571;1.8166E-5;7.1E-7;0;Iridium
14.34218419;0.0001934;86.3934;99.8224;97.4844;262.6571;1.8166E-5;7.1E-7;0;Iridium
14.34218483;0.0001943;86.3934;99.6473;97.5751;262.5666;2.0042E-5;7.6E-7;0;Iridium
14.34218566;0.0001951;86.3935;99.4138;97.7798;262.3619;2.2155E-5;8.2E-7;0;Iridium
14.3421862;0.0001964;86.3935;99.1804;97.9706;262.1713;2.2237E-5;8.2E-7;0;Iridium
14.34218687;0.0001972;86.3936;99.0053;98.1526;261.9894;2.4401E-5;8.8E-7;0;Iridium
14.34218769;0.0001987;86.3936;98.8011;98.2939;261.8482;2.5553E-5;9.1E-7;0;Iridium
14.34218871;0.0002004;86.3936;98.5676;98.7049;261.4374;2.7633E-5;9.7E-7;0;Iridium
14.34218871;0.0002004;86.3936;98.5676;98.7049;261.4374;2.7633E-5;9.7E-7;0;Iridium
14.34218927;0.0002015;86.3937;98.3925;98.798;261.3444;2.7883E-5;9.8E-7;0;Iridium
14.34219018;0.0002038;86.3937;98.1591;99.463;260.6797;2.9084E-5;1.01E-6;0;Iridium
14.34219102;0.0002052;86.3937;97.9548;99.4533;260.6895;2.91E-5;1.01E-6;0;Iridium
14.34219204;0.0002057;86.3938;97.7506;99.2858;260.857;3.0924E-5;1.06E-6;0;Iridium
14.34219293;0.0002073;86.3938;97.5463;99.3269;260.8161;3.0573E-5;1.05E-6;0;Iridium
14.3421937;0.0002084;86.3939;97.3129;99.364;260.7791;3.0038E-5;1.04E-6;0;Iridium
14.3421937;0.0002084;86.3939;97.3129;99.364;260.7791;3.0038E-5;1.04E-6;0;Iridium
14.34219423;0.0002096;86.394;97.1378;99.3804;260.7629;2.8772E-5;1.0E-6;0;Iridium
14.34219469;0.0002106;86.3941;96.9044;99.5047;260.6387;2.6222E-5;9.3E-7;0;Iridium
14.34219514;0.0002122;86.3941;96.7001;99.5759;260.5676;2.3997E-5;8.7E-7;0;Iridium
14.34219569;0.0002135;86.3942;96.4959;99.7634;260.3802;2.2904E-5;8.4E-7;0;Iridium
14.34219634;0.0002152;86.3943;96.2916;99.7175;260.4264;2.1453E-5;8.0E-7;0;Iridium
14.34219672;0.0002163;86.3943;96.0873;99.5573;260.5867;1.9868E-5;7.5E-7;0;Iridium
14.34219718;0.000218;86.3944;95.8831;99.4882;260.6561;1.8269E-5;7.1E-7;0;Iridium
14.34212592;0.0002597;86.3966;95.6762;91.6846;268.4647;1.6851E-5;6.7E-7;0;Iridium
14.34215158;0.0002222;86.3948;95.4454;99.3989;260.7458;1.5663E-5;6.4E-7;0;Iridium
14.34215185;0.0002269;86.3947;95.2408;101.8348;258.3102;1.2876E-5;5.6E-7;0;Iridium
14.34215185;0.0002269;86.3947;95.2408;101.8348;258.3102;1.2876E-5;5.6E-7;0;Iridium
14.34215185;0.0002269;86.3947;95.2408;101.8348;258.3102;1.2876E-5;5.6E-7;0;Iridium
14.3421527;0.0002269;86.3947;95.0367;100.7212;259.4239;1.7906E-5;7.0E-7;0;Iridium
14.34215357;0.000228;86.3948;94.8325;100.7282;259.417;2.2008E-5;8.1E-7;0;Iridium
14.34215408;0.000229;86.3949;94.6282;100.2459;259.8995;2.0125E-5;7.6E-7;0;Iridium
14.34215416;0.0002295;86.3949;94.3657;99.2442;260.9013;1.5185E-5;6.2E-7;0;Iridium
14.34215416;0.0002295;86.3949;94.3657;99.2442;260.9013;1.5185E-5;6.2E-7;0;Iridium
14.34215454;0.0002304;86.395;94.1907;99.2364;260.9092;1.461E-5;6.1E-7;0;Iridium
14.34215501;0.0002314;86.3951;93.9573;99.0948;261.051;1.5607E-5;6.3E-7;0;Iridium
14.34215536;0.0002324;86.3951;93.7823;98.9137;261.2322;1.5374E-5;6.3E-7;0;Iridium
14.34215663;0.0002345;86.3952;93.4031;98.5154;261.6308;1.9289E-5;7.4E-7;0;Iridium
14.34215817;0.0002365;86.3953;93.0822;98.2358;261.9106;2.6623E-5;9.4E-7;0;Iridium
14.34215957;0.0002381;86.3954;92.703;97.9805;262.1661;2.8366E-5;9.9E-7;0;Iridium
14.34216009;0.000239;86.3955;92.528;97.8432;262.3035;2.7413E-5;9.7E-7;0;Iridium
14.34216059;0.0002407;86.3956;92.2655;97.6777;262.4692;2.5165E-5;9.0E-7;0;Iridium
14.34216083;0.0002416;86.3956;92.1196;97.5264;262.6206;2.2595E-5;8.3E-7;0;Iridium
